<?xml version="1.0" encoding="utf-8" ?>
<kml xmlns="http://www.opengis.net/kml/2.2">
<Document id="root_doc">
<Schema name="ocupaciones_tramos" id="ocupaciones_tramos">
	<SimpleField name="servei" type="string"></SimpleField>
	<SimpleField name="tecnic" type="string"></SimpleField>
	<SimpleField name="contratista" type="string"></SimpleField>
	<SimpleField name="cap_obra" type="string"></SimpleField>
	<SimpleField name="emplazamiento" type="string"></SimpleField>
	<SimpleField name="descripcion" type="string"></SimpleField>
	<SimpleField name="tipo_obra" type="string"></SimpleField>
	<SimpleField name="observaciones" type="string"></SimpleField>
	<SimpleField name="condicions_mobilitat" type="string"></SimpleField>
	<SimpleField name="f_inicio" type="string"></SimpleField>
	<SimpleField name="f_fin" type="string"></SimpleField>
	<SimpleField name="ID" type="int"></SimpleField>
	<SimpleField name="estado_geo" type="string"></SimpleField>
</Schema>
<Folder><name>ocupaciones_tramos</name>
  <Placemark id="ocupaciones_tramos.1">
	<ExtendedData><SchemaData schemaUrl="#ocupaciones_tramos">
		<SimpleData name="servei">REVISIÓN TUBERÍAS</SimpleData>
		<SimpleData name="tecnic"></SimpleData>
		<SimpleData name="contratista">UTE PASSEIG MARITIM</SimpleData>
		<SimpleData name="cap_obra"></SimpleData>
		<SimpleData name="emplazamiento">AVDA. GABRIEL ROCA, desde Avda. Argentina hasta torre Pelaires</SimpleData>
		<SimpleData name="descripcion">Necesitamos la ocupación de carril lado tierra, el más cercano a la banda de estacionamiento del lado tierra y aparcamientos, para la revisión de tuberías existentes, en tramos alternativamente de unos 5mts. que ocupara el camión de Osifar, que es la empresa que va ha revisar las tuberías. El horario se comprenderá entre las 07'00h y 18h.</SimpleData>
		<SimpleData name="tipo_obra">Revisión de tuberías, con cámara.</SimpleData>
		<SimpleData name="observaciones">INDISPENSABLE PAGATINAS PROHIBIDO APARCAR PARA UN APARCAMIENTO DEL LADO TIERRA</SimpleData>
		<SimpleData name="condicions_mobilitat"></SimpleData>
		<SimpleData name="f_inicio">20260909</SimpleData>
		<SimpleData name="f_fin">20261109</SimpleData>
		<SimpleData name="ID">1</SimpleData>
		<SimpleData name="estado_geo">EXACTO_GOOGLE</SimpleData>
	</SchemaData></ExtendedData>
      <Point><coordinates>2.6405968,39.5733148,0</coordinates></Point>
  </Placemark>
  <Placemark id="ocupaciones_tramos.2">
	<ExtendedData><SchemaData schemaUrl="#ocupaciones_tramos">
		<SimpleData name="servei">ENLLUMENAT PUBLIC</SimpleData>
		<SimpleData name="tecnic"></SimpleData>
		<SimpleData name="contratista">EDISON NEXT</SimpleData>
		<SimpleData name="cap_obra"></SimpleData>
		<SimpleData name="emplazamiento">Avenida Alemanya</SimpleData>
		<SimpleData name="descripcion">Montaje de luces de Navidad desde la calle. Con ocupación de acera y carril de taxi-bus.</SimpleData>
		<SimpleData name="tipo_obra">OCUPACIÓN VÍA PÚBLICA, TRABAJOS DE ALUMBRADO PÚBLICO, OCUPACIÓN CALZADA (CARRIL DE TAXI-BUS).</SimpleData>
		<SimpleData name="observaciones">Ocupación (ver plano)</SimpleData>
		<SimpleData name="condicions_mobilitat"></SimpleData>
		<SimpleData name="f_inicio">20260929</SimpleData>
		<SimpleData name="f_fin">20261005</SimpleData>
		<SimpleData name="ID">12</SimpleData>
		<SimpleData name="estado_geo">EXACTO</SimpleData>
	</SchemaData></ExtendedData>
      <Point><coordinates>2.6477119,39.577519,0</coordinates></Point>
  </Placemark>
  <Placemark id="ocupaciones_tramos.3">
	<ExtendedData><SchemaData schemaUrl="#ocupaciones_tramos">
		<SimpleData name="servei">ENLLUMENAT PUBLIC</SimpleData>
		<SimpleData name="tecnic"></SimpleData>
		<SimpleData name="contratista">EDISON NEXT</SimpleData>
		<SimpleData name="cap_obra"></SimpleData>
		<SimpleData name="emplazamiento">AV. GASPAR BENNASAR, 1 AL 73</SimpleData>
		<SimpleData name="descripcion">Montaje de elementos navideños (árboles, guirnaldas y decoración). Para la ejecución de los trabajos se regulará con corte carril con tráfico alternativo mediante señalistas. Se realizará por tramo con las fechas indicadas en plano.</SimpleData>
		<SimpleData name="tipo_obra">OCUPACIÓN VÍA PÚBLICA, TRABAJOS DE ALUMBRADO PÚBLICO, SIN CORTES DE TRÁFICO, corte carril con tráfico alternativo mediante señalistas.</SimpleData>
		<SimpleData name="observaciones">La ocupación se realizará conforme al plano adjunto. En las zonas afectadas por líneas de la EMT, los trabajos se ejecutarán en el menor tiempo posible con el fin de minimizar las afecciones al servicio. Asimismo, se comunicará a la EMT cualquier modificación de la planificación prevista, así como la finalización anticipada de los trabajos, en caso de producirse. Fines de semana no se trabaja.</SimpleData>
		<SimpleData name="condicions_mobilitat"></SimpleData>
		<SimpleData name="f_inicio">20260925</SimpleData>
		<SimpleData name="f_fin">20261007</SimpleData>
		<SimpleData name="ID">21</SimpleData>
		<SimpleData name="estado_geo">EXACTO</SimpleData>
	</SchemaData></ExtendedData>
      <Point><coordinates>2.6580374,39.582871,0</coordinates></Point>
  </Placemark>
  <Placemark id="ocupaciones_tramos.4">
	<ExtendedData><SchemaData schemaUrl="#ocupaciones_tramos">
		<SimpleData name="servei">ENLLUMENAT PUBLIC</SimpleData>
		<SimpleData name="tecnic"></SimpleData>
		<SimpleData name="contratista">EDISON NEXT</SimpleData>
		<SimpleData name="cap_obra"></SimpleData>
		<SimpleData name="emplazamiento">AV. GASPAR BENNASAR, 1 AL 73</SimpleData>
		<SimpleData name="descripcion">Montaje de elementos navideños (árboles, guirnaldas y decoración). Para la ejecución de los trabajos se regulará con corte carril con tráfico alternativo mediante señalistas. Se realizará por tramo con las fechas indicadas en plano.</SimpleData>
		<SimpleData name="tipo_obra">OCUPACIÓN VÍA PÚBLICA, TRABAJOS DE ALUMBRADO PÚBLICO, SIN CORTES DE TRÁFICO, corte carril con tráfico alternativo mediante señalistas.</SimpleData>
		<SimpleData name="observaciones">La ocupación se realizará conforme al plano adjunto. En las zonas afectadas por líneas de la EMT, los trabajos se ejecutarán en el menor tiempo posible con el fin de minimizar las afecciones al servicio. Asimismo, se comunicará a la EMT cualquier modificación de la planificación prevista, así como la finalización anticipada de los trabajos, en caso de producirse. Fines de semana no se trabaja.</SimpleData>
		<SimpleData name="condicions_mobilitat"></SimpleData>
		<SimpleData name="f_inicio">20260925</SimpleData>
		<SimpleData name="f_fin">20261007</SimpleData>
		<SimpleData name="ID">34</SimpleData>
		<SimpleData name="estado_geo">EXACTO</SimpleData>
	</SchemaData></ExtendedData>
      <Point><coordinates>2.6580374,39.582871,0</coordinates></Point>
  </Placemark>
  <Placemark id="ocupaciones_tramos.5">
	<ExtendedData><SchemaData schemaUrl="#ocupaciones_tramos">
		<SimpleData name="servei">PRIVAT</SimpleData>
		<SimpleData name="tecnic"></SimpleData>
		<SimpleData name="contratista"></SimpleData>
		<SimpleData name="cap_obra"></SimpleData>
		<SimpleData name="emplazamiento">Jaume III, 25</SimpleData>
		<SimpleData name="descripcion"></SimpleData>
		<SimpleData name="tipo_obra">CARGA Y DESCARGA</SimpleData>
		<SimpleData name="observaciones"></SimpleData>
		<SimpleData name="condicions_mobilitat">Horari autoritzat de 10 a 12</SimpleData>
		<SimpleData name="f_inicio">20260925</SimpleData>
		<SimpleData name="f_fin">20261010</SimpleData>
		<SimpleData name="ID">40</SimpleData>
		<SimpleData name="estado_geo">EXACTO</SimpleData>
	</SchemaData></ExtendedData>
      <Point><coordinates>2.6430241,39.5723658,0</coordinates></Point>
  </Placemark>
  <Placemark id="ocupaciones_tramos.6">
	<ExtendedData><SchemaData schemaUrl="#ocupaciones_tramos">
		<SimpleData name="servei">PRIVAT</SimpleData>
		<SimpleData name="tecnic"></SimpleData>
		<SimpleData name="contratista"></SimpleData>
		<SimpleData name="cap_obra"></SimpleData>
		<SimpleData name="emplazamiento">CE Arxiduc Lluis Salvador, 89</SimpleData>
		<SimpleData name="descripcion"></SimpleData>
		<SimpleData name="tipo_obra"></SimpleData>
		<SimpleData name="observaciones">Ocupación carril circulación</SimpleData>
		<SimpleData name="condicions_mobilitat">Ocupación carril circulación mediante tráfico alternativo con señalistas en toda la intersección. Horario de 10:00 a 12:00h.</SimpleData>
		<SimpleData name="f_inicio">20261006</SimpleData>
		<SimpleData name="f_fin">20261007</SimpleData>
		<SimpleData name="ID">42</SimpleData>
		<SimpleData name="estado_geo">EXACTO</SimpleData>
	</SchemaData></ExtendedData>
      <Point><coordinates>2.6574363,39.5849151,0</coordinates></Point>
  </Placemark>
  <Placemark id="ocupaciones_tramos.7">
	<ExtendedData><SchemaData schemaUrl="#ocupaciones_tramos">
		<SimpleData name="servei">PRIVAT</SimpleData>
		<SimpleData name="tecnic"></SimpleData>
		<SimpleData name="contratista"></SimpleData>
		<SimpleData name="cap_obra"></SimpleData>
		<SimpleData name="emplazamiento">JOAN MIRÓ 243</SimpleData>
		<SimpleData name="descripcion"></SimpleData>
		<SimpleData name="tipo_obra"></SimpleData>
		<SimpleData name="observaciones">Ocupación carril circulación, paso alterno de vehiculos por el sentido no ocupado y banda de estacionamiento</SimpleData>
		<SimpleData name="condicions_mobilitat">S'haurà de garantir que en tot moment es pot realitzar el pas alternatiu de vehicles amb senyalista per l'espai disponible, inclosos camions i autobusos. L'inici de la ocupació serà a partir de les 9:30.</SimpleData>
		<SimpleData name="f_inicio">20260929</SimpleData>
		<SimpleData name="f_fin">20261002</SimpleData>
		<SimpleData name="ID">43</SimpleData>
		<SimpleData name="estado_geo">EXACTO</SimpleData>
	</SchemaData></ExtendedData>
      <Point><coordinates>2.6105958,39.5511049,0</coordinates></Point>
  </Placemark>
  <Placemark id="ocupaciones_tramos.8">
	<ExtendedData><SchemaData schemaUrl="#ocupaciones_tramos">
		<SimpleData name="servei">EMAYA</SimpleData>
		<SimpleData name="tecnic"></SimpleData>
		<SimpleData name="contratista">EMAYA</SimpleData>
		<SimpleData name="cap_obra"></SimpleData>
		<SimpleData name="emplazamiento">C/ BALTASAR VALENTI, 26</SimpleData>
		<SimpleData name="descripcion">TRABAJOS A REALIZAR EN CALZADA</SimpleData>
		<SimpleData name="tipo_obra">REPARAR RED ALCANTARILLADO POR ROTURA</SimpleData>
		<SimpleData name="observaciones">PRECISARA EL DESVIO DE LA LINEA DE LA EMT DE 9,30 H A 14:00 H.</SimpleData>
		<SimpleData name="condicions_mobilitat">Ocupación de 9:30 a 14:00 con desvío EMT. Permite paso vehículos.</SimpleData>
		<SimpleData name="f_inicio">20260901</SimpleData>
		<SimpleData name="f_fin">20261002</SimpleData>
		<SimpleData name="ID">47</SimpleData>
		<SimpleData name="estado_geo">EXACTO</SimpleData>
	</SchemaData></ExtendedData>
      <Point><coordinates>2.6827553,39.5907239,0</coordinates></Point>
  </Placemark>
  <Placemark id="ocupaciones_tramos.9">
	<ExtendedData><SchemaData schemaUrl="#ocupaciones_tramos">
		<SimpleData name="servei">EDIFICIS MUNICIPALS</SimpleData>
		<SimpleData name="tecnic"></SimpleData>
		<SimpleData name="contratista">URBIA SERVICES</SimpleData>
		<SimpleData name="cap_obra"></SimpleData>
		<SimpleData name="emplazamiento">C/UNIÓ 3</SimpleData>
		<SimpleData name="descripcion">Es necessita l'espai per descarregar la grua després es deixarà l'espai lliure per la circul·lació i es tornarà a ocupar per carregar la grua</SimpleData>
		<SimpleData name="tipo_obra">DESCARREGAR  I CARREGAR GRUA</SimpleData>
		<SimpleData name="observaciones">OCUPACIÓN DE VIA PÚBLICA Se adjunta plano</SimpleData>
		<SimpleData name="condicions_mobilitat">Ocupacion a partir de las 9:30, únicamente un carril</SimpleData>
		<SimpleData name="f_inicio">20261014</SimpleData>
		<SimpleData name="f_fin">20261014</SimpleData>
		<SimpleData name="ID">48</SimpleData>
		<SimpleData name="estado_geo">EXACTO</SimpleData>
	</SchemaData></ExtendedData>
      <Point><coordinates>2.6472116,39.5714648,0</coordinates></Point>
  </Placemark>
  <Placemark id="ocupaciones_tramos.10">
	<ExtendedData><SchemaData schemaUrl="#ocupaciones_tramos">
		<SimpleData name="servei">PRIVAT</SimpleData>
		<SimpleData name="tecnic"></SimpleData>
		<SimpleData name="contratista"></SimpleData>
		<SimpleData name="cap_obra"></SimpleData>
		<SimpleData name="emplazamiento">JOAN MIRÓ 243</SimpleData>
		<SimpleData name="descripcion"></SimpleData>
		<SimpleData name="tipo_obra"></SimpleData>
		<SimpleData name="observaciones"></SimpleData>
		<SimpleData name="condicions_mobilitat">Ocupacion un carril, paso alterno de vehiculos en el espacio restante. inicio 9:30</SimpleData>
		<SimpleData name="f_inicio">20261005</SimpleData>
		<SimpleData name="f_fin">20261009</SimpleData>
		<SimpleData name="ID">49</SimpleData>
		<SimpleData name="estado_geo">EXACTO</SimpleData>
	</SchemaData></ExtendedData>
      <Point><coordinates>2.6105958,39.5511049,0</coordinates></Point>
  </Placemark>
  <Placemark id="ocupaciones_tramos.11">
	<ExtendedData><SchemaData schemaUrl="#ocupaciones_tramos">
		<SimpleData name="servei">EMAYA. Obres i Projectes</SimpleData>
		<SimpleData name="tecnic"></SimpleData>
		<SimpleData name="contratista">VOPSA</SimpleData>
		<SimpleData name="cap_obra"></SimpleData>
		<SimpleData name="emplazamiento">Saridakis 31 a 45</SimpleData>
		<SimpleData name="descripcion">nueva red de saneamiento. Tecnología sin zanja</SimpleData>
		<SimpleData name="tipo_obra">PROYECTO RENOVACION DE REDES DE AGUA POTABLE EN Y ALCANTARILLADO ZONA C/SARIDAKIS</SimpleData>
		<SimpleData name="observaciones">Cortes puntuales carril en horario laboral. Tráfico sentido alternativo</SimpleData>
		<SimpleData name="condicions_mobilitat">Paso alternativo, prestar especial atención al paso del bus que siempre se tiene que permitir y modificar el estrechamiento si fuera necesario para el paso del bus en condiciones de seguridad.</SimpleData>
		<SimpleData name="f_inicio">20261001</SimpleData>
		<SimpleData name="f_fin">20261015</SimpleData>
		<SimpleData name="ID">50</SimpleData>
		<SimpleData name="estado_geo">EXACTO</SimpleData>
	</SchemaData></ExtendedData>
      <Point><coordinates>2.6091876,39.5560342,0</coordinates></Point>
  </Placemark>
  <Placemark id="ocupaciones_tramos.12">
	<ExtendedData><SchemaData schemaUrl="#ocupaciones_tramos">
		<SimpleData name="servei">EMAYA. Obres i Projectes</SimpleData>
		<SimpleData name="tecnic"></SimpleData>
		<SimpleData name="contratista">MELCHOR MASCARÓ</SimpleData>
		<SimpleData name="cap_obra"></SimpleData>
		<SimpleData name="emplazamiento">Avda Joan Miró 229</SimpleData>
		<SimpleData name="descripcion">Conexiones</SimpleData>
		<SimpleData name="tipo_obra">PROYECTO DE RENOVACIÓN AGUA POTABLE Y COLECTOR DE GRAVEDAD EN AVDA. JOAN MIRÓ (TRAMO MARIVENT – AVDA. GABRIEL ROCA)</SimpleData>
		<SimpleData name="observaciones">Ocupaciones puntuale spara preparación de conexiones. Se mantienen ambos sentidos de circulación</SimpleData>
		<SimpleData name="condicions_mobilitat">en la zona del semáforo se tienen que permitir los dos movimientos, recto y giro a la izquierda.</SimpleData>
		<SimpleData name="f_inicio">20261005</SimpleData>
		<SimpleData name="f_fin">20261016</SimpleData>
		<SimpleData name="ID">51</SimpleData>
		<SimpleData name="estado_geo">EXACTO</SimpleData>
	</SchemaData></ExtendedData>
      <Point><coordinates>2.6126535,39.5518755,0</coordinates></Point>
  </Placemark>
  <Placemark id="ocupaciones_tramos.13">
	<ExtendedData><SchemaData schemaUrl="#ocupaciones_tramos">
		<SimpleData name="servei">EMAYA. Obres i Projectes</SimpleData>
		<SimpleData name="tecnic"></SimpleData>
		<SimpleData name="contratista">MELCHOR MASCARÓ</SimpleData>
		<SimpleData name="cap_obra"></SimpleData>
		<SimpleData name="emplazamiento">Avda Joan Miró -Saridakis</SimpleData>
		<SimpleData name="descripcion">Conexiones</SimpleData>
		<SimpleData name="tipo_obra">PROYECTO DE RENOVACIÓN AGUA POTABLE Y COLECTOR DE GRAVEDAD EN AVDA. JOAN MIRÓ (TRAMO MARIVENT – AVDA. GABRIEL ROCA)</SimpleData>
		<SimpleData name="observaciones">Ocupaciones puntuale spara preparación de conexiones. Se mantienen ambos sentidos de circulación</SimpleData>
		<SimpleData name="condicions_mobilitat">en la zona del semáforo se tienen que permitir los dos movimientos, recto y giro a la izquierda.</SimpleData>
		<SimpleData name="f_inicio">20261001</SimpleData>
		<SimpleData name="f_fin">20261016</SimpleData>
		<SimpleData name="ID">52</SimpleData>
		<SimpleData name="estado_geo">EXACTO</SimpleData>
	</SchemaData></ExtendedData>
      <Point><coordinates>2.6088339,39.5553117,0</coordinates></Point>
  </Placemark>
  <Placemark id="ocupaciones_tramos.14">
	<ExtendedData><SchemaData schemaUrl="#ocupaciones_tramos">
		<SimpleData name="servei">EMAYA. Obres i Projectes</SimpleData>
		<SimpleData name="tecnic"></SimpleData>
		<SimpleData name="contratista">MELCHOR MASCARÓ</SimpleData>
		<SimpleData name="cap_obra"></SimpleData>
		<SimpleData name="emplazamiento">Avda Joan Miró 227 B</SimpleData>
		<SimpleData name="descripcion">Conexiones</SimpleData>
		<SimpleData name="tipo_obra">PROYECTO DE RENOVACIÓN AGUA POTABLE Y COLECTOR DE GRAVEDAD EN AVDA. JOAN MIRÓ (TRAMO MARIVENT – AVDA. GABRIEL ROCA)</SimpleData>
		<SimpleData name="observaciones">Ocupaciones puntuale spara preparación de conexiones. Se mantienen ambos sentidos de circulación</SimpleData>
		<SimpleData name="condicions_mobilitat">en la zona del semáforo se tienen que permitir los dos movimientos, recto y giro a la izquierda.</SimpleData>
		<SimpleData name="f_inicio">20261005</SimpleData>
		<SimpleData name="f_fin">20261016</SimpleData>
		<SimpleData name="ID">53</SimpleData>
		<SimpleData name="estado_geo">EXACTO</SimpleData>
	</SchemaData></ExtendedData>
      <Point><coordinates>2.6146693,39.5521812,0</coordinates></Point>
  </Placemark>
  <Placemark id="ocupaciones_tramos.15">
	<ExtendedData><SchemaData schemaUrl="#ocupaciones_tramos">
		<SimpleData name="servei">COBRA</SimpleData>
		<SimpleData name="tecnic"></SimpleData>
		<SimpleData name="contratista"></SimpleData>
		<SimpleData name="cap_obra"></SimpleData>
		<SimpleData name="emplazamiento">CAMÍ 140, 50</SimpleData>
		<SimpleData name="descripcion"></SimpleData>
		<SimpleData name="tipo_obra">Reparacion poste hormigon</SimpleData>
		<SimpleData name="observaciones">A pesar de que se corta el acceso desde el numero 34, se permitirá el paso a vecionos y bus EMT</SimpleData>
		<SimpleData name="condicions_mobilitat"></SimpleData>
		<SimpleData name="f_inicio">20261005</SimpleData>
		<SimpleData name="f_fin">20261005</SimpleData>
		<SimpleData name="ID">54</SimpleData>
		<SimpleData name="estado_geo">EXACTO</SimpleData>
	</SchemaData></ExtendedData>
      <Point><coordinates>2.6687559,39.6282145,0</coordinates></Point>
  </Placemark>
  <Placemark id="ocupaciones_tramos.16">
	<ExtendedData><SchemaData schemaUrl="#ocupaciones_tramos">
		<SimpleData name="servei">PRIVAT</SimpleData>
		<SimpleData name="tecnic"></SimpleData>
		<SimpleData name="contratista"></SimpleData>
		<SimpleData name="cap_obra"></SimpleData>
		<SimpleData name="emplazamiento">Antoni Marquès 2</SimpleData>
		<SimpleData name="descripcion"></SimpleData>
		<SimpleData name="tipo_obra">Carga de escombros de demolición</SimpleData>
		<SimpleData name="observaciones">La ocupació màxima que es permetrà es de un únic carril de circulació (el més proper a la obra) deixant lliures dos carrils a Antoni Marquès en tot moment. La ocupació haurà de començar a partir de les 9:30.</SimpleData>
		<SimpleData name="condicions_mobilitat"></SimpleData>
		<SimpleData name="f_inicio">20261006</SimpleData>
		<SimpleData name="f_fin">20261007</SimpleData>
		<SimpleData name="ID">55</SimpleData>
		<SimpleData name="estado_geo">EXACTO</SimpleData>
	</SchemaData></ExtendedData>
      <Point><coordinates>2.6520735,39.5800215,0</coordinates></Point>
  </Placemark>
  <Placemark id="ocupaciones_tramos.17">
	<ExtendedData><SchemaData schemaUrl="#ocupaciones_tramos">
		<SimpleData name="servei">PRIVAT</SimpleData>
		<SimpleData name="tecnic"></SimpleData>
		<SimpleData name="contratista"></SimpleData>
		<SimpleData name="cap_obra"></SimpleData>
		<SimpleData name="emplazamiento">Llucmajor, 8</SimpleData>
		<SimpleData name="descripcion"></SimpleData>
		<SimpleData name="tipo_obra"></SimpleData>
		<SimpleData name="observaciones">A partir de les 9:30, pas altern de vehicles amb senyalista</SimpleData>
		<SimpleData name="condicions_mobilitat"></SimpleData>
		<SimpleData name="f_inicio">20261006</SimpleData>
		<SimpleData name="f_fin">20261006</SimpleData>
		<SimpleData name="ID">56</SimpleData>
		<SimpleData name="estado_geo">EXACTO</SimpleData>
	</SchemaData></ExtendedData>
      <Point><coordinates>2.6717007,39.5612341,0</coordinates></Point>
  </Placemark>
  <Placemark id="ocupaciones_tramos.18">
	<ExtendedData><SchemaData schemaUrl="#ocupaciones_tramos">
		<SimpleData name="servei">ENLLUMENAT PUBLIC</SimpleData>
		<SimpleData name="tecnic"></SimpleData>
		<SimpleData name="contratista">EDISON NEXT</SimpleData>
		<SimpleData name="cap_obra"></SimpleData>
		<SimpleData name="emplazamiento">C. TORCUATO LUCA DE TENA, 1.</SimpleData>
		<SimpleData name="descripcion">###############################################################################################################################################################################################################################################################</SimpleData>
		<SimpleData name="tipo_obra">OCUPACIÓN VÍA PÚBLICA, TRABAJOS DE ALUMBRADO PÚBLICO.</SimpleData>
		<SimpleData name="observaciones">Ocupación (ver plano).</SimpleData>
		<SimpleData name="condicions_mobilitat">Si no bastara con la ocupación de banda de aparcamiento (principalmente en el lado impar de la calle) se puede hacer un estrechamiento de carril, pero se tiene que permitir en todo momento el paso de vehículos.</SimpleData>
		<SimpleData name="f_inicio">20261009</SimpleData>
		<SimpleData name="f_fin">20261016</SimpleData>
		<SimpleData name="ID">57</SimpleData>
		<SimpleData name="estado_geo">EXACTO</SimpleData>
	</SchemaData></ExtendedData>
      <Point><coordinates>2.6639468,39.5754215,0</coordinates></Point>
  </Placemark>
  <Placemark id="ocupaciones_tramos.19">
	<ExtendedData><SchemaData schemaUrl="#ocupaciones_tramos">
		<SimpleData name="servei">ENLLUMENAT PUBLIC</SimpleData>
		<SimpleData name="tecnic"></SimpleData>
		<SimpleData name="contratista">EDISON NEXT</SimpleData>
		<SimpleData name="cap_obra"></SimpleData>
		<SimpleData name="emplazamiento">C. GAPAR BENNAZAR, 1 AL 29</SimpleData>
		<SimpleData name="descripcion">###############################################################################################################################################################################################################################################################</SimpleData>
		<SimpleData name="tipo_obra">OCUPACIÓN VÍA PÚBLICA, TRABAJOS DE ALUMBRADO PÚBLICO, SIN CORTES DE TRÁFICO, ZONA APARCAMIENTO</SimpleData>
		<SimpleData name="observaciones">La ocupación se realizará conforme al plano adjunto. En las zonas afectadas por líneas de la EMT, los trabajos se ejecutarán en el menor tiempo posible con el fin de minimizar las afecciones al servicio. Asimismo, se comunicará a la EMT cualquier modificación de la planificación prevista, así como la finalización anticipada de los trabajos, en caso de producirse. Fines de semana no se trabaja.</SimpleData>
		<SimpleData name="condicions_mobilitat">Actuaciones a partir de las 9:30 h en todos los tramos</SimpleData>
		<SimpleData name="f_inicio">20261012</SimpleData>
		<SimpleData name="f_fin">20261016</SimpleData>
		<SimpleData name="ID">58</SimpleData>
		<SimpleData name="estado_geo">EXACTO_GOOGLE</SimpleData>
	</SchemaData></ExtendedData>
      <Point><coordinates>2.6600023,39.5822064,0</coordinates></Point>
  </Placemark>
  <Placemark id="ocupaciones_tramos.20">
	<ExtendedData><SchemaData schemaUrl="#ocupaciones_tramos">
		<SimpleData name="servei">ENLLUMENAT PUBLIC</SimpleData>
		<SimpleData name="tecnic"></SimpleData>
		<SimpleData name="contratista">EDISON NEXT</SimpleData>
		<SimpleData name="cap_obra"></SimpleData>
		<SimpleData name="emplazamiento">C. GAPAR BENNAZAR, 11 parada 1976</SimpleData>
		<SimpleData name="descripcion">###############################################################################################################################################################################################################################################################</SimpleData>
		<SimpleData name="tipo_obra">OCUPACIÓN VÍA PÚBLICA, TRABAJOS DE ALUMBRADO PÚBLICO, CON CORTE DE TRÁFICO, OCUPACIÓN CARRIL</SimpleData>
		<SimpleData name="observaciones">La ocupación se realizará conforme al plano adjunto. En las zonas afectadas por líneas de la EMT, los trabajos se ejecutarán en el menor tiempo posible con el fin de minimizar las afecciones al servicio. Asimismo, se comunicará a la EMT cualquier modificación de la planificación prevista, así como la finalización anticipada de los trabajos, en caso de producirse. Fines de semana no se trabaja.</SimpleData>
		<SimpleData name="condicions_mobilitat">En el tramo comprendido entre Eusebi Estada y Gaspar Bennazar ocupación entre las 9:30 horas y 13:30 horas al ser una zona de colegios</SimpleData>
		<SimpleData name="f_inicio">20261007</SimpleData>
		<SimpleData name="f_fin">20261007</SimpleData>
		<SimpleData name="ID">59</SimpleData>
		<SimpleData name="estado_geo">EXACTO_GOOGLE</SimpleData>
	</SchemaData></ExtendedData>
      <Point><coordinates>2.6605995,39.581919,0</coordinates></Point>
  </Placemark>
  <Placemark id="ocupaciones_tramos.21">
	<ExtendedData><SchemaData schemaUrl="#ocupaciones_tramos">
		<SimpleData name="servei">ENLLUMENAT PUBLIC</SimpleData>
		<SimpleData name="tecnic"></SimpleData>
		<SimpleData name="contratista">EDISON NEXT</SimpleData>
		<SimpleData name="cap_obra"></SimpleData>
		<SimpleData name="emplazamiento">C. GAPAR BENNAZAR, 31 AL 49</SimpleData>
		<SimpleData name="descripcion">###############################################################################################################################################################################################################################################################</SimpleData>
		<SimpleData name="tipo_obra">OCUPACIÓN VÍA PÚBLICA, TRABAJOS DE ALUMBRADO PÚBLICO, SIN CORTES DE TRÁFICO, ZONA APARCAMIENTO</SimpleData>
		<SimpleData name="observaciones">La ocupación se realizará conforme al plano adjunto. En las zonas afectadas por líneas de la EMT, los trabajos se ejecutarán en el menor tiempo posible con el fin de minimizar las afecciones al servicio. Asimismo, se comunicará a la EMT cualquier modificación de la planificación prevista, así como la finalización anticipada de los trabajos, en caso de producirse. Fines de semana no se trabaja.</SimpleData>
		<SimpleData name="condicions_mobilitat">Siempre se ha de permitir la circulación en ambos sentidos por lo que se han de adoptar las medidas de señalización adecuadas</SimpleData>
		<SimpleData name="f_inicio">20261011</SimpleData>
		<SimpleData name="f_fin">20261015</SimpleData>
		<SimpleData name="ID">60</SimpleData>
		<SimpleData name="estado_geo">EXACTO_GOOGLE</SimpleData>
	</SchemaData></ExtendedData>
      <Point><coordinates>2.6565581,39.5836436,0</coordinates></Point>
  </Placemark>
  <Placemark id="ocupaciones_tramos.22">
	<ExtendedData><SchemaData schemaUrl="#ocupaciones_tramos">
		<SimpleData name="servei">ENLLUMENAT PUBLIC</SimpleData>
		<SimpleData name="tecnic"></SimpleData>
		<SimpleData name="contratista">EDISON NEXT</SimpleData>
		<SimpleData name="cap_obra"></SimpleData>
		<SimpleData name="emplazamiento">C. GAPAR BENNAZAR, 30 AL 38</SimpleData>
		<SimpleData name="descripcion">###############################################################################################################################################################################################################################################################</SimpleData>
		<SimpleData name="tipo_obra">OCUPACIÓN VÍA PÚBLICA, TRABAJOS DE ALUMBRADO PÚBLICO, SIN CORTES DE TRÁFICO, ZONA APARCAMIENTO</SimpleData>
		<SimpleData name="observaciones">La ocupación se realizará conforme al plano adjunto. En las zonas afectadas por líneas de la EMT, los trabajos se ejecutarán en el menor tiempo posible con el fin de minimizar las afecciones al servicio. Asimismo, se comunicará a la EMT cualquier modificación de la planificación prevista, así como la finalización anticipada de los trabajos, en caso de producirse. Fines de semana no se trabaja.</SimpleData>
		<SimpleData name="condicions_mobilitat">Si no se pueden hacer los trabajos con estas condiciones se tendrán que hacer en fin de semana o en horario nocturno.</SimpleData>
		<SimpleData name="f_inicio">20261006</SimpleData>
		<SimpleData name="f_fin">20261008</SimpleData>
		<SimpleData name="ID">61</SimpleData>
		<SimpleData name="estado_geo">EXACTO_GOOGLE</SimpleData>
	</SchemaData></ExtendedData>
      <Point><coordinates>2.6572468,39.5833445,0</coordinates></Point>
  </Placemark>
  <Placemark id="ocupaciones_tramos.23">
	<ExtendedData><SchemaData schemaUrl="#ocupaciones_tramos">
		<SimpleData name="servei">ENLLUMENAT PUBLIC</SimpleData>
		<SimpleData name="tecnic"></SimpleData>
		<SimpleData name="contratista">EDISON NEXT</SimpleData>
		<SimpleData name="cap_obra"></SimpleData>
		<SimpleData name="emplazamiento">C. GAPAR BENNAZAR,40 AL 70</SimpleData>
		<SimpleData name="descripcion">###############################################################################################################################################################################################################################################################</SimpleData>
		<SimpleData name="tipo_obra">OCUPACIÓN VÍA PÚBLICA, TRABAJOS DE ALUMBRADO PÚBLICO, SIN CORTES DE TRÁFICO, ZONA APARCAMIENTO</SimpleData>
		<SimpleData name="observaciones">La ocupación se realizará conforme al plano adjunto. En las zonas afectadas por líneas de la EMT, los trabajos se ejecutarán en el menor tiempo posible con el fin de minimizar las afecciones al servicio. Asimismo, se comunicará a la EMT cualquier modificación de la planificación prevista, así como la finalización anticipada de los trabajos, en caso de producirse. Fines de semana no se trabaja.</SimpleData>
		<SimpleData name="condicions_mobilitat"></SimpleData>
		<SimpleData name="f_inicio">20261007</SimpleData>
		<SimpleData name="f_fin">20261010</SimpleData>
		<SimpleData name="ID">62</SimpleData>
		<SimpleData name="estado_geo">EXACTO_GOOGLE</SimpleData>
	</SchemaData></ExtendedData>
      <Point><coordinates>2.6560981,39.5834617,0</coordinates></Point>
  </Placemark>
  <Placemark id="ocupaciones_tramos.24">
	<ExtendedData><SchemaData schemaUrl="#ocupaciones_tramos">
		<SimpleData name="servei">ENLLUMENAT PUBLIC</SimpleData>
		<SimpleData name="tecnic"></SimpleData>
		<SimpleData name="contratista">EDISON NEXT</SimpleData>
		<SimpleData name="cap_obra"></SimpleData>
		<SimpleData name="emplazamiento">C. GAPAR BENNAZAR, 11 parada 1975</SimpleData>
		<SimpleData name="descripcion">Montaje de elementos navideños (árboles, guirnaldas y decoración). corte de carril derecho, no es necesario hacer tráfico carril derecho ya que hay dos carriles en el mismo sentido. Horario de 9,30 a 13h</SimpleData>
		<SimpleData name="tipo_obra">OCUPACIÓN VÍA PÚBLICA, TRABAJOS DE ALUMBRADO PÚBLICO, CON CORTE DE TRÁFICO, OCUPACIÓN CARRIL</SimpleData>
		<SimpleData name="observaciones">La ocupación se realizará conforme al plano adjunto. En las zonas afectadas por líneas de la EMT, los trabajos se ejecutarán en el menor tiempo posible con el fin de minimizar las afecciones al servicio. Asimismo, se comunicará a la EMT cualquier modificación de la planificación prevista, así como la finalización anticipada de los trabajos, en caso de producirse. Fines de semana no se trabaja.</SimpleData>
		<SimpleData name="condicions_mobilitat"></SimpleData>
		<SimpleData name="f_inicio">20261007</SimpleData>
		<SimpleData name="f_fin">20261007</SimpleData>
		<SimpleData name="ID">63</SimpleData>
		<SimpleData name="estado_geo">EXACTO_GOOGLE</SimpleData>
	</SchemaData></ExtendedData>
      <Point><coordinates>2.6605995,39.581919,0</coordinates></Point>
  </Placemark>
  <Placemark id="ocupaciones_tramos.25">
	<ExtendedData><SchemaData schemaUrl="#ocupaciones_tramos">
		<SimpleData name="servei">ENLLUMENAT PUBLIC</SimpleData>
		<SimpleData name="tecnic"></SimpleData>
		<SimpleData name="contratista">EDISON NEXT</SimpleData>
		<SimpleData name="cap_obra"></SimpleData>
		<SimpleData name="emplazamiento">C. GAPAR BENNAZAR, 51 AL 73</SimpleData>
		<SimpleData name="descripcion">###############################################################################################################################################################################################################################################################</SimpleData>
		<SimpleData name="tipo_obra">OCUPACIÓN VÍA PÚBLICA, TRABAJOS DE ALUMBRADO PÚBLICO, SIN CORTES DE TRÁFICO, ZONA APARCAMIENTO</SimpleData>
		<SimpleData name="observaciones">La ocupación se realizará conforme al plano adjunto. En las zonas afectadas por líneas de la EMT, los trabajos se ejecutarán en el menor tiempo posible con el fin de minimizar las afecciones al servicio. Asimismo, se comunicará a la EMT cualquier modificación de la planificación prevista, así como la finalización anticipada de los trabajos, en caso de producirse. Fines de semana no se trabaja.</SimpleData>
		<SimpleData name="condicions_mobilitat"></SimpleData>
		<SimpleData name="f_inicio">20261009</SimpleData>
		<SimpleData name="f_fin">20261014</SimpleData>
		<SimpleData name="ID">64</SimpleData>
		<SimpleData name="estado_geo">EXACTO_GOOGLE</SimpleData>
	</SchemaData></ExtendedData>
      <Point><coordinates>2.6543571,39.5843342,0</coordinates></Point>
  </Placemark>
  <Placemark id="ocupaciones_tramos.26">
	<ExtendedData><SchemaData schemaUrl="#ocupaciones_tramos">
		<SimpleData name="servei">ENLLUMENAT PUBLIC</SimpleData>
		<SimpleData name="tecnic"></SimpleData>
		<SimpleData name="contratista">EDISON NEXT</SimpleData>
		<SimpleData name="cap_obra"></SimpleData>
		<SimpleData name="emplazamiento">C. GAPAR BENNAZAR, 11 parada 1974</SimpleData>
		<SimpleData name="descripcion">Montaje de elementos navideños (árboles, guirnaldas y decoración). corte de carril habilitando tráfico alternativo, de forma que se mantengan los dos sentidos de circulación. Horario de 9,30 a 13h</SimpleData>
		<SimpleData name="tipo_obra">OCUPACIÓN VÍA PÚBLICA, TRABAJOS DE ALUMBRADO PÚBLICO, CON CORTE DE TRÁFICO, OCUPACIÓN CARRIL</SimpleData>
		<SimpleData name="observaciones">La ocupación se realizará conforme al plano adjunto. En las zonas afectadas por líneas de la EMT, los trabajos se ejecutarán en el menor tiempo posible con el fin de minimizar las afecciones al servicio. Asimismo, se comunicará a la EMT cualquier modificación de la planificación prevista, así como la finalización anticipada de los trabajos, en caso de producirse. Fines de semana no se trabaja.</SimpleData>
		<SimpleData name="condicions_mobilitat"></SimpleData>
		<SimpleData name="f_inicio">20261007</SimpleData>
		<SimpleData name="f_fin">20261007</SimpleData>
		<SimpleData name="ID">65</SimpleData>
		<SimpleData name="estado_geo">EXACTO_GOOGLE</SimpleData>
	</SchemaData></ExtendedData>
      <Point><coordinates>2.6605995,39.581919,0</coordinates></Point>
  </Placemark>
</Folder>
</Document></kml>
